ATLAS CENTAUR 2         
1 00694U 63047A   26196.12653081  .00000552  00000+0  55387-4 0  9992
2 00694  30.3511 203.1409 0545680 123.9150 241.4565 14.12564752149651
THOR AGENA D R/B        
1 00733U 64002A   26196.48388438  .00000064  00000+0  40332-4 0  9990
2 00733  99.1156 216.7420 0031839 245.6871 114.0986 14.34076093256611
SL-3 R/B                
1 00877U 64053B   26196.52352606  .00000033  00000+0  30665-4 0  9992
2 00877  65.0780 316.4263 0080260 252.1974 107.0358 14.61439684285477
SL-8 R/B                
1 02802U 67045B   26196.18079790  .00000125  00000+0  42245-4 0  9997
2 02802  74.0111 109.9761 0063017  86.6346 274.2018 14.45695377107442
SL-8 R/B                
1 03230U 68040B   26196.05613415  .00001164  00000+0  87022-4 0  9999
2 03230  74.0291  53.2887 0025109 201.4425 158.5715 15.03939524109150
OAO 2                   
1 03597U 68110A   26196.20051268  .00000087  00000+0  28574-4 0  9992
2 03597  34.9932 273.2648 0005043 144.8528 215.2496 14.47361771 37585
ISIS 1                  
1 03669U 69009A   26196.33976884  .00000042  00000+0  22652-4 0  9996
2 03669  88.4451 141.3084 1707148 191.3630 164.3702 11.30436573362959
SERT 2                  
1 04327U 70009A   26196.46823314 -.00000018  00000+0  32571-4 0  9998
2 04327  99.2840 132.6639 0004553 188.4032 285.6957 13.58740985797244
SL-3 R/B                
1 05118U 71028B   26196.52464541  .00039609  00000+0  29458-3 0  9995
2 05118  81.2303 252.8085 0014640 180.9101 179.2135 15.72481846  8696
ASTEX 1                 
1 05560U 71089A   26196.48757818  .00000213  00000+0  54176-4 0  9995
2 05560  92.7006 192.9703 0016300  21.4807 338.7080 14.50871574880833
SL-8 R/B                
1 05730U 71119B   26196.50885086  .00004246  00000+0  21835-3 0  9995
2 05730  73.8885 296.3648 0542743 236.6298 118.1806 14.39737222673871
OAO 3 (COPERNICUS)      
1 06153U 72065A   26196.33725358  .00000129  00000+0  30738-4 0  9991
2 06153  35.0060 290.0081 0006041 127.7196 268.1201 14.60074868864861
ATLAS CENTAUR R/B       
1 06155U 72065B   26196.24537675  .00000344  00000+0  49991-4 0  9996
2 06155  35.0014 278.0463 0033535   3.1341 356.9565 14.77965696860141
SL-8 R/B                
1 08459U 75112B   26196.28087690  .00000116  00000+0  46704-4 0  9998
2 08459  74.0607 144.1908 0016196 207.0122 153.0191 14.38258204650217
SL-3 R/B                
1 10114U 77057B   26196.59176628  .00006453  00000+0  12349-3 0  9990
2 10114  97.5848  14.5212 0007228 168.8497 191.2914 15.48417377688104
SEASAT 1                
1 10967U 78064A   26196.46003169  .00000014  00000+0  42491-4 0  9999
2 10967 108.0180  33.6410 0001087 255.8860 104.2165 14.46260244524980
SL-14 R/B               
1 11267U 79011B   26196.47679261  .00000243  00000+0  21374-4 0  9990
2 11267  82.5254 335.3056 0015757 356.2624   3.8475 14.92038128547835
SL-8 R/B                
1 11574U 79089B   26196.50240414  .00000058  00000+0  25643-4 0  9991
2 11574  74.0669 214.4401 0016041 349.2129  10.8681 14.42414530454533
SL-14 R/B               
1 11672U 80005B   26196.43990249  .00000247  00000+0  22321-4 0  9990
2 11672  82.5137 186.0391 0017333  96.8032 263.5160 14.91050124495523
SL-8 R/B                
1 12139U 81003B   26196.42823173  .00011874  00000+0  28126-3 0  9994
2 12139  82.9363 171.5177 0250114  92.8058 270.1828 15.15070846333995
SL-3 R/B                
1 12465U 81046B   26196.50110247  .00007635  00000+0  16175-3 0  9994
2 12465  81.2318 135.9468 0015746 296.0354  63.9268 15.44785064458141
SL-3 R/B                
1 12904U 81103B   26196.57927030  .00002560  00000+0  10926-3 0  9999
2 12904  81.1569  63.2707 0012087 210.4318 149.6214 15.22490633992686
SL-3 R/B                
1 13068U 82013B   26196.60762818  .00002029  00000+0  84657-4 0  9990
2 13068  81.1734  10.6903 0022921 107.1526 253.2219 15.22963966423812
SL-3 R/B                
1 13154U 82039B   26196.58343339  .00001695  00000+0  10004-3 0  9996
2 13154  81.1510  68.2827 0028326 257.0695 102.7366 15.10699740400944
SL-3 R/B                
1 13403U 82079B   26196.51044975  .00003109  00000+0  11878-3 0  9996
2 13403  81.1442  41.9770 0024974  92.5794 267.8299 15.26015812397185
SL-14 R/B               
1 13553U 82092B   26196.52007076  .00000219  00000+0  21788-4 0  9990
2 13553  82.5668  21.7864 0019019 234.5011 181.5845 14.86764999347928
SL-3 R/B                
1 13819U 83010B   26196.53610013  .00008791  00000+0  15624-3 0  9992
2 13819  81.0992 205.0305 0013274 322.2974  37.7341 15.49916531377729
SL-3 R/B                
1 14208U 83075B   26196.51529708  .00006202  00000+0  15145-3 0  9997
2 14208  97.6102 206.1873 0022174 128.6188 231.7047 15.40984786349821
COSMOS 1536             
1 14699U 84013A   26196.43906862  .00003288  00000+0  12880-3 0  9999
2 14699  82.5457 340.6978 0013945 187.3905 172.7130 15.25345479292081
SL-14 R/B               
1 14820U 84027B   26196.29288263  .00000210  00000+0  21189-4 0  9997
2 14820  82.5430 125.3623 0016326 271.1919  88.7427 14.86079154266587
